[{"OBJECT_NAME":"STARLINK-2666","OBJECT_ID":"2021-044AE","EPOCH":"2026-03-09T09:41:56.845824","MEAN_MOTION":15.06412995,"ECCENTRICITY":0.00014416,"INCLINATION":53.0551,"RA_OF_ASC_NODE":113.3735,"ARG_OF_PERICENTER":97.7439,"MEAN_ANOMALY":262.3713,"EPHEMERIS_TYPE":0,"CLASSIFICATION_TYPE":"U","NORAD_CAT_ID":48666,"ELEMENT_SET_NO":999,"REV_AT_EPOCH":26379,"BSTAR":8.8652646e-5,"MEAN_MOTION_DOT":1.04e-5,"MEAN_MOTION_DDOT":0},{"OBJECT_NAME":"NOAA 17 DEB","OBJECT_ID":"2002-032DT","EPOCH":"2026-03-08T22:47:54.624192","MEAN_MOTION":15.08678856,"ECCENTRICITY":0.0018728,"INCLINATION":98.77,"RA_OF_ASC_NODE":121.3607,"ARG_OF_PERICENTER":298.7191,"MEAN_ANOMALY":61.2152,"EPHEMERIS_TYPE":0,"CLASSIFICATION_TYPE":"U","NORAD_CAT_ID":49489,"ELEMENT_SET_NO":999,"REV_AT_EPOCH":24229,"BSTAR":0.0068247859,"MEAN_MOTION_DOT":0.00108865,"MEAN_MOTION_DDOT":0}]
